0 BREEZE-M R/B
1 39023U 12070B   13280.98162670 -.00000020  00000-0  10000-3 0  1584
2 39023 024.9402 223.9171 6349787 101.2109 331.6835 02.09996707  6388
0 BREEZE-M R/B
1 39023U 12070B   13283.83800322 -.00000219  00000-0  10000-3 0  1595
2 39023 024.9409 223.3414 6348921 102.1715 331.0794 02.09998386  6441
0 BREEZE-M R/B
1 39023U 12070B   13286.21831140 -.00000129  00000-0  10000-3 0  1604
2 39023 024.9407 222.8622 6348050 102.9761 330.5722 02.09997276  6493
0 BREEZE-M R/B
1 39023U 12070B   13289.07467891  .00000077  00000-0  10000-3 0  1611
2 39023 024.9415 222.2911 6346845 103.9448 329.9445 02.09995639  6552
0 BREEZE-M R/B
1 39023U 12070B   13291.93102220 -.00000048  00000-0  10000-3 0  1621
2 39023 024.9415 221.7105 6346631 104.8906 329.2815 02.09997022  6612
0 BREEZE-M R/B
1 39023U 12070B   13294.78737721 -.00000211  00000-0  10000-3 0  1630
2 39023 024.9432 221.1392 6345899 105.8530 328.6581 02.09998253  6678
